[
    {
        "Altitude(m)": 717079.4566339666,
        "Argument of Periapsis(deg)": 0.006834072711976239,
        "Eccentricity": 0.0,
        "Inclination(deg)": 45.0,
        "Latitude(deg)": -43.21311277054281,
        "Longitude(deg)": 105.4073330755041,
        "Mean Anomaly(deg)": -74.8982700115115,
        "RAAN(deg)": 274.99354883512507,
        "Satellite Name": "Constellation 1 1227",
        "Satellite Number": 1227,
        "Semi-Major Axis(m)": 7083131.272910544,
        "Time(s)": 114
    },
    {
        "Altitude(m)": 717073.1183120721,
        "Argument of Periapsis(deg)": 0.006894020718221645,
        "Eccentricity": 0.0,
        "Inclination(deg)": 45.0,
        "Latitude(deg)": -43.19780865542515,
        "Longitude(deg)": 105.48341363214237,
        "Mean Anomaly(deg)": -74.8375688712617,
        "RAAN(deg)": 274.9934922459595,
        "Satellite Name": "Constellation 1 1227",
        "Satellite Number": 1227,
        "Semi-Major Axis(m)": 7083131.272910544,
        "Time(s)": 115
    },
    {
        "Altitude(m)": 717066.7565612982,
        "Argument of Periapsis(deg)": 0.006953968724467052,
        "Eccentricity": 0.0,
        "Inclination(deg)": 45.0,
        "Latitude(deg)": -43.18244833104721,
        "Longitude(deg)": 105.55945413824246,
        "Mean Anomaly(deg)": -74.77686773101175,
        "RAAN(deg)": 274.99343565679396,
        "Satellite Name": "Constellation 1 1227",
        "Satellite Number": 1227,
        "Semi-Major Axis(m)": 7083131.272910544,
        "Time(s)": 116
    },
    {
        "Altitude(m)": 717060.3714050249,
        "Argument of Periapsis(deg)": 0.007013916730712457,
        "Eccentricity": 0.0,
        "Inclination(deg)": 45.0,
        "Latitude(deg)": -43.16703185496438,
        "Longitude(deg)": 105.6354544888663,
        "Mean Anomaly(deg)": -74.71616659076179,
        "RAAN(deg)": 274.9933790676283,
        "Satellite Name": "Constellation 1 1227",
        "Satellite Number": 1227,
        "Semi-Major Axis(m)": 7083131.272910544,
        "Time(s)": 117
    },
    {
        "Altitude(m)": 717053.9628667262,
        "Argument of Periapsis(deg)": 0.007073864736957864,
        "Eccentricity": 0.0,
        "Inclination(deg)": 45.0,
        "Latitude(deg)": -43.15155928486854,
        "Longitude(deg)": 105.71141457963095,
        "Mean Anomaly(deg)": -74.65546545051195,
        "RAAN(deg)": 274.9933224784628,
        "Satellite Name": "Constellation 1 1227",
        "Satellite Number": 1227,
        "Semi-Major Axis(m)": 7083131.272910544,
        "Time(s)": 118
    },
    {
        "Altitude(m)": 717047.5309699541,
        "Argument of Periapsis(deg)": 0.0071338127432032696,
        "Eccentricity": 0.0,
        "Inclination(deg)": 45.0,
        "Latitude(deg)": -43.13603067858702,
        "Longitude(deg)": 105.78733413861195,
        "Mean Anomaly(deg)": -74.5947643102621,
        "RAAN(deg)": 274.9932658892972,
        "Satellite Name": "Constellation 1 1227",
        "Satellite Number": 1227,
        "Semi-Major Axis(m)": 7083131.272910544,
        "Time(s)": 119
    },
    {
        "Altitude(m)": 717041.0757383417,
        "Argument of Periapsis(deg)": 0.007193760749448674,
        "Eccentricity": 0.0,
        "Inclination(deg)": 45.0,
        "Latitude(deg)": -43.12044609408191,
        "Longitude(deg)": 105.86321339873085,
        "Mean Anomaly(deg)": -74.53406317001208,
        "RAAN(deg)": 274.99320930013164,
        "Satellite Name": "Constellation 1 1227",
        "Satellite Number": 1227,
        "Semi-Major Axis(m)": 7083131.272910544,
        "Time(s)": 120
    },
    {
        "Altitude(m)": 717034.5971956139,
        "Argument of Periapsis(deg)": 0.007253708755694079,
        "Eccentricity": 0.0,
        "Inclination(deg)": 45.0,
        "Latitude(deg)": -43.104805589449086,
        "Longitude(deg)": 105.93905208917397,
        "Mean Anomaly(deg)": -74.47336202976224,
        "RAAN(deg)": 274.9931527109661,
        "Satellite Name": "Constellation 1 1227",
        "Satellite Number": 1227,
        "Semi-Major Axis(m)": 7083131.272910544,
        "Time(s)": 121
    },
    {
        "Altitude(m)": 717028.0953655787,
        "Argument of Periapsis(deg)": 0.0073136567619394854,
        "Eccentricity": 0.0,
        "Inclination(deg)": 45.0,
        "Latitude(deg)": -43.089109222917216,
        "Longitude(deg)": 106.01485010778104,
        "Mean Anomaly(deg)": -74.41266088951238,
        "RAAN(deg)": 274.9930961218005,
        "Satellite Name": "Constellation 1 1227",
        "Satellite Number": 1227,
        "Semi-Major Axis(m)": 7083131.272910544,
        "Time(s)": 122
    },
    {
        "Altitude(m)": 717021.5702721254,
        "Argument of Periapsis(deg)": 0.0073736047681848904,
        "Eccentricity": 0.0,
        "Inclination(deg)": 45.0,
        "Latitude(deg)": -43.07335705284689,
        "Longitude(deg)": 106.09060735294793,
        "Mean Anomaly(deg)": -74.35195974926245,
        "RAAN(deg)": 274.99303953263495,
        "Satellite Name": "Constellation 1 1227",
        "Satellite Number": 1227,
        "Semi-Major Axis(m)": 7083131.272910544,
        "Time(s)": 123
    },
    {
        "Altitude(m)": 717015.0219392378,
        "Argument of Periapsis(deg)": 0.007433552774430298,
        "Eccentricity": 0.0,
        "Inclination(deg)": 45.0,
        "Latitude(deg)": -43.057549137729865,
        "Longitude(deg)": 106.16632372362673,
        "Mean Anomaly(deg)": -74.29125860901247,
        "RAAN(deg)": 274.99298294346937,
        "Satellite Name": "Constellation 1 1227",
        "Satellite Number": 1227,
        "Semi-Major Axis(m)": 7083131.272910544,
        "Time(s)": 124
    },
    {
        "Altitude(m)": 717008.4503909701,
        "Argument of Periapsis(deg)": 0.007493500780675703,
        "Eccentricity": 0.0,
        "Inclination(deg)": 45.0,
        "Latitude(deg)": -43.04168553618805,
        "Longitude(deg)": 106.24199911932618,
        "Mean Anomaly(deg)": -74.23055746876264,
        "RAAN(deg)": 274.99292635430385,
        "Satellite Name": "Constellation 1 1227",
        "Satellite Number": 1227,
        "Semi-Major Axis(m)": 7083131.272910544,
        "Time(s)": 125
    },
    {
        "Altitude(m)": 717001.8556514744,
        "Argument of Periapsis(deg)": 0.007553448786921108,
        "Eccentricity": 0.0,
        "Inclination(deg)": 45.0,
        "Latitude(deg)": -43.02576630697242,
        "Longitude(deg)": 106.3176332720155,
        "Mean Anomaly(deg)": -74.16985632851274,
        "RAAN(deg)": 274.9928697651382,
        "Satellite Name": "Constellation 1 1227",
        "Satellite Number": 1227,
        "Semi-Major Axis(m)": 7083131.272910544,
        "Time(s)": 126
    },
    {
        "Altitude(m)": 716995.237744977,
        "Argument of Periapsis(deg)": 0.007613396793166514,
        "Eccentricity": 0.0,
        "Inclination(deg)": 45.0,
        "Latitude(deg)": -43.00979150896265,
        "Longitude(deg)": 106.39322641851116,
        "Mean Anomaly(deg)": -74.10915518826279,
        "RAAN(deg)": 274.99281317597263,
        "Satellite Name": "Constellation 1 1227",
        "Satellite Number": 1227,
        "Semi-Major Axis(m)": 7083131.272910544,
        "Time(s)": 127
    },
    {
        "Altitude(m)": 716988.5966957922,
        "Argument of Periapsis(deg)": 0.007673344799411918,
        "Eccentricity": 0.0,
        "Inclination(deg)": 45.0,
        "Latitude(deg)": -42.993761201165675,
        "Longitude(deg)": 106.46877829189621,
        "Mean Anomaly(deg)": -74.04845404801294,
        "RAAN(deg)": 274.9927565868071,
        "Satellite Name": "Constellation 1 1227",
        "Satellite Number": 1227,
        "Semi-Major Axis(m)": 7083131.272910544,
        "Time(s)": 128
    },
    {
        "Altitude(m)": 716981.9325283213,
        "Argument of Periapsis(deg)": 0.007733292805657325,
        "Eccentricity": 0.0,
        "Inclination(deg)": 45.0,
        "Latitude(deg)": -42.97767544271492,
        "Longitude(deg)": 106.54428879390827,
        "Mean Anomaly(deg)": -73.98775290776308,
        "RAAN(deg)": 274.9926999976415,
        "Satellite Name": "Constellation 1 1227",
        "Satellite Number": 1227,
        "Semi-Major Axis(m)": 7083131.272910544,
        "Time(s)": 129
    },
    {
        "Altitude(m)": 716975.2452670501,
        "Argument of Periapsis(deg)": 0.00779324081190273,
        "Eccentricity": 0.0,
        "Inclination(deg)": 45.0,
        "Latitude(deg)": -42.96153429286965,
        "Longitude(deg)": 106.61975782684247,
        "Mean Anomaly(deg)": -73.92705176751313,
        "RAAN(deg)": 274.992643408476,
        "Satellite Name": "Constellation 1 1227",
        "Satellite Number": 1227,
        "Semi-Major Axis(m)": 7083131.272910544,
        "Time(s)": 130
    },
    {
        "Altitude(m)": 716968.5349365395,
        "Argument of Periapsis(deg)": 0.007853188818148135,
        "Eccentricity": 0.0,
        "Inclination(deg)": 45.0,
        "Latitude(deg)": -42.9453378110138,
        "Longitude(deg)": 106.69518529355112,
        "Mean Anomaly(deg)": -73.86635062726322,
        "RAAN(deg)": 274.99258681931036,
        "Satellite Name": "Constellation 1 1227",
        "Satellite Number": 1227,
        "Semi-Major Axis(m)": 7083131.272910544,
        "Time(s)": 131
    },
    {
        "Altitude(m)": 716961.8015614451,
        "Argument of Periapsis(deg)": 0.007913136824393542,
        "Eccentricity": 0.0,
        "Inclination(deg)": 45.0,
        "Latitude(deg)": -42.92908605665519,
        "Longitude(deg)": 106.77057109744479,
        "Mean Anomaly(deg)": -73.80564948701338,
        "RAAN(deg)": 274.9925302301448,
        "Satellite Name": "Constellation 1 1227",
        "Satellite Number": 1227,
        "Semi-Major Axis(m)": 7083131.272910544,
        "Time(s)": 132
    }
]